<?xml version="1.0" encoding="UTF-8"?>
<ndm xmlns:xsi="https://www.w3.org/2001/XMLSchema-instance" xsi:noNamespaceSchemaLocation="https://sanaregistry.org/r/ndmxml/ndmxml-1.0-master.xsd">
<omm id="CCSDS_OMM_VERS" version="2.0">
<header><CREATION_DATE/><ORIGINATOR/></header><body><segment><metadata><OBJECT_NAME>STARLINK-1622</OBJECT_NAME><OBJECT_ID>2020-057M</OBJECT_ID><CENTER_NAME>EARTH</CENTER_NAME><REF_FRAME>TEME</REF_FRAME><TIME_SYSTEM>UTC</TIME_SYSTEM><MEAN_ELEMENT_THEORY>SGP4</MEAN_ELEMENT_THEORY></metadata><data><meanElements><EPOCH>2020-09-08T22:00:00.999936</EPOCH><MEAN_MOTION>15.66091395</MEAN_MOTION><ECCENTRICITY>.0001114</ECCENTRICITY><INCLINATION>52.9979</INCLINATION><RA_OF_ASC_NODE>335.2728</RA_OF_ASC_NODE><ARG_OF_PERICENTER>37.3952</ARG_OF_PERICENTER><MEAN_ANOMALY>182.2899</MEAN_ANOMALY></meanElements><tleParameters><EPHEMERIS_TYPE>0</EPHEMERIS_TYPE><CLASSIFICATION_TYPE>U</CLASSIFICATION_TYPE><NORAD_CAT_ID>46128</NORAD_CAT_ID><ELEMENT_SET_NO>999</ELEMENT_SET_NO><REV_AT_EPOCH>177</REV_AT_EPOCH><BSTAR>-.23657E-3</BSTAR><MEAN_MOTION_DOT>-2.521E-4</MEAN_MOTION_DOT><MEAN_MOTION_DDOT>0</MEAN_MOTION_DDOT></tleParameters></data></segment></body></omm>
<omm id="CCSDS_OMM_VERS" version="2.0">
<header><CREATION_DATE/><ORIGINATOR/></header><body><segment><metadata><OBJECT_NAME>STARLINK-1623</OBJECT_NAME><OBJECT_ID>2020-057N</OBJECT_ID><CENTER_NAME>EARTH</CENTER_NAME><REF_FRAME>TEME</REF_FRAME><TIME_SYSTEM>UTC</TIME_SYSTEM><MEAN_ELEMENT_THEORY>SGP4</MEAN_ELEMENT_THEORY></metadata><data><meanElements><EPOCH>2020-09-08T20:10:16.079232</EPOCH><MEAN_MOTION>15.62355008</MEAN_MOTION><ECCENTRICITY>.0007708</ECCENTRICITY><INCLINATION>53.0008</INCLINATION><RA_OF_ASC_NODE>335.9705</RA_OF_ASC_NODE><ARG_OF_PERICENTER>272.2809</ARG_OF_PERICENTER><MEAN_ANOMALY>87.7321</MEAN_ANOMALY></meanElements><tleParameters><EPHEMERIS_TYPE>0</EPHEMERIS_TYPE><CLASSIFICATION_TYPE>U</CLASSIFICATION_TYPE><NORAD_CAT_ID>46129</NORAD_CAT_ID><ELEMENT_SET_NO>999</ELEMENT_SET_NO><REV_AT_EPOCH>336</REV_AT_EPOCH><BSTAR>-.35924E-3</BSTAR><MEAN_MOTION_DOT>-3.2846E-4</MEAN_MOTION_DOT><MEAN_MOTION_DDOT>0</MEAN_MOTION_DDOT></tleParameters></data></segment></body></omm>
<omm id="CCSDS_OMM_VERS" version="2.0">
<header><CREATION_DATE/><ORIGINATOR/></header><body><segment><metadata><OBJECT_NAME>STARLINK-1625</OBJECT_NAME><OBJECT_ID>2020-057Q</OBJECT_ID><CENTER_NAME>EARTH</CENTER_NAME><REF_FRAME>TEME</REF_FRAME><TIME_SYSTEM>UTC</TIME_SYSTEM><MEAN_ELEMENT_THEORY>SGP4</MEAN_ELEMENT_THEORY></metadata><data><meanElements><EPOCH>2020-09-08T22:00:00.999936</EPOCH><MEAN_MOTION>15.66270098</MEAN_MOTION><ECCENTRICITY>.0001591</ECCENTRICITY><INCLINATION>52.9984</INCLINATION><RA_OF_ASC_NODE>335.2769</RA_OF_ASC_NODE><ARG_OF_PERICENTER>59.1567</ARG_OF_PERICENTER><MEAN_ANOMALY>165.5629</MEAN_ANOMALY></meanElements><tleParameters><EPHEMERIS_TYPE>0</EPHEMERIS_TYPE><CLASSIFICATION_TYPE>U</CLASSIFICATION_TYPE><NORAD_CAT_ID>46131</NORAD_CAT_ID><ELEMENT_SET_NO>999</ELEMENT_SET_NO><REV_AT_EPOCH>177</REV_AT_EPOCH><BSTAR>-.23248E-3</BSTAR><MEAN_MOTION_DOT>-2.4962E-4</MEAN_MOTION_DOT><MEAN_MOTION_DDOT>0</MEAN_MOTION_DDOT></tleParameters></data></segment></body></omm>
<omm id="CCSDS_OMM_VERS" version="2.0">
<header><CREATION_DATE/><ORIGINATOR/></header><body><segment><metadata><OBJECT_NAME>STARLINK-1637</OBJECT_NAME><OBJECT_ID>2020-057S</OBJECT_ID><CENTER_NAME>EARTH</CENTER_NAME><REF_FRAME>TEME</REF_FRAME><TIME_SYSTEM>UTC</TIME_SYSTEM><MEAN_ELEMENT_THEORY>SGP4</MEAN_ELEMENT_THEORY></metadata><data><meanElements><EPOCH>2020-09-08T22:00:00.999936</EPOCH><MEAN_MOTION>15.66283706</MEAN_MOTION><ECCENTRICITY>.0002436</ECCENTRICITY><INCLINATION>52.9981</INCLINATION><RA_OF_ASC_NODE>335.2414</RA_OF_ASC_NODE><ARG_OF_PERICENTER>311.1056</ARG_OF_PERICENTER><MEAN_ANOMALY>287.2421</MEAN_ANOMALY></meanElements><tleParameters><EPHEMERIS_TYPE>0</EPHEMERIS_TYPE><CLASSIFICATION_TYPE>U</CLASSIFICATION_TYPE><NORAD_CAT_ID>46133</NORAD_CAT_ID><ELEMENT_SET_NO>999</ELEMENT_SET_NO><REV_AT_EPOCH>177</REV_AT_EPOCH><BSTAR>-.25579E-3</BSTAR><MEAN_MOTION_DOT>-2.7419E-4</MEAN_MOTION_DOT><MEAN_MOTION_DDOT>0</MEAN_MOTION_DDOT></tleParameters></data></segment></body></omm>
<omm id="CCSDS_OMM_VERS" version="2.0">
<header><CREATION_DATE/><ORIGINATOR/></header><body><segment><metadata><OBJECT_NAME>STARLINK-1638</OBJECT_NAME><OBJECT_ID>2020-057T</OBJECT_ID><CENTER_NAME>EARTH</CENTER_NAME><REF_FRAME>TEME</REF_FRAME><TIME_SYSTEM>UTC</TIME_SYSTEM><MEAN_ELEMENT_THEORY>SGP4</MEAN_ELEMENT_THEORY></metadata><data><meanElements><EPOCH>2020-09-09T04:00:00.999936</EPOCH><MEAN_MOTION>15.62749527</MEAN_MOTION><ECCENTRICITY>.0004754</ECCENTRICITY><INCLINATION>53.0004</INCLINATION><RA_OF_ASC_NODE>334.3970</RA_OF_ASC_NODE><ARG_OF_PERICENTER>281.7729</ARG_OF_PERICENTER><MEAN_ANOMALY>103.9215</MEAN_ANOMALY></meanElements><tleParameters><EPHEMERIS_TYPE>0</EPHEMERIS_TYPE><CLASSIFICATION_TYPE>U</CLASSIFICATION_TYPE><NORAD_CAT_ID>46134</NORAD_CAT_ID><ELEMENT_SET_NO>999</ELEMENT_SET_NO><REV_AT_EPOCH>407</REV_AT_EPOCH><BSTAR>.60070E-3</BSTAR><MEAN_MOTION_DOT>5.4855E-4</MEAN_MOTION_DOT><MEAN_MOTION_DDOT>0</MEAN_MOTION_DDOT></tleParameters></data></segment></body></omm>
<omm id="CCSDS_OMM_VERS" version="2.0">
<header><CREATION_DATE/><ORIGINATOR/></header><body><segment><metadata><OBJECT_NAME>STARLINK-1639</OBJECT_NAME><OBJECT_ID>2020-057U</OBJECT_ID><CENTER_NAME>EARTH</CENTER_NAME><REF_FRAME>TEME</REF_FRAME><TIME_SYSTEM>UTC</TIME_SYSTEM><MEAN_ELEMENT_THEORY>SGP4</MEAN_ELEMENT_THEORY></metadata><data><meanElements><EPOCH>2020-09-08T22:00:00.999936</EPOCH><MEAN_MOTION>15.62787865</MEAN_MOTION><ECCENTRICITY>.0001201</ECCENTRICITY><INCLINATION>52.9995</INCLINATION><RA_OF_ASC_NODE>335.5773</RA_OF_ASC_NODE><ARG_OF_PERICENTER>55.0303</ARG_OF_PERICENTER><MEAN_ANOMALY>22.5179</MEAN_ANOMALY></meanElements><tleParameters><EPHEMERIS_TYPE>0</EPHEMERIS_TYPE><CLASSIFICATION_TYPE>U</CLASSIFICATION_TYPE><NORAD_CAT_ID>46135</NORAD_CAT_ID><ELEMENT_SET_NO>999</ELEMENT_SET_NO><REV_AT_EPOCH>177</REV_AT_EPOCH><BSTAR>-.53508E-3</BSTAR><MEAN_MOTION_DOT>-4.9298E-4</MEAN_MOTION_DOT><MEAN_MOTION_DDOT>0</MEAN_MOTION_DDOT></tleParameters></data></segment></body></omm>

</ndm>
