STARLINK-1622           
1 46128U 20057M   20252.91667824 -.00025210  00000-0 -23657-3 0  9997
2 46128  52.9979 335.2728 0001114  37.3952 182.2899 15.66091395  1779
STARLINK-1623           
1 46129U 20057N   20252.84046388 -.00032846  00000-0 -35924-3 0  9999
2 46129  53.0008 335.9705 0007708 272.2809  87.7321 15.62355008  3369
STARLINK-1625           
1 46131U 20057Q   20252.91667824 -.00024962  00000-0 -23248-3 0  9990
2 46131  52.9984 335.2769 0001591  59.1567 165.5629 15.66270098  1771
STARLINK-1637           
1 46133U 20057S   20252.91667824 -.00027419  00000-0 -25579-3 0  9991
2 46133  52.9981 335.2414 0002436 311.1056 287.2421 15.66283706  1772
STARLINK-1638           
1 46134U 20057T   20253.16667824  .00054855  00000-0  60070-3 0  9997
2 46134  53.0004 334.3970 0004754 281.7729 103.9215 15.62749527  4077
STARLINK-1639           
1 46135U 20057U   20252.91667824 -.00049298  00000-0 -53508-3 0  9995
2 46135  52.9995 335.5773 0001201  55.0303  22.5179 15.62787865  1779
